start=new Date('2023-05-17T00:00:00.000Z').valueOf();
sats=[{"OBJECT_NAME":"STARLINK-1729","MEAN_MOTION_DDOT":"0.0000000000000","COUNTRY_CODE":"US","TLE_LINE2":"2 46583  53.0546 113.0375 0001241  89.8363 270.2769 15.06393977144503","MEAN_ANOMALY":"270.2769","ARG_OF_PERICENTER":"89.8363","DECAY_DATE":null,"RCS_SIZE":"LARGE","CLASSIFICATION_TYPE":"U","PERIOD":"95.593","ELEMENT_SET_NO":"999","TIME_SYSTEM":"UTC","REF_FRAME":"TEME","MEAN_ELEMENT_THEORY":"SGP4","NORAD_CAT_ID":"46583","SEMIMAJOR_AXIS":"6925.367","TLE_LINE1":"1 46583U 20070BD  23136.34356762  .00000798  00000-0  72462-4 0  9995","PERIAPSIS":"546.373","INCLINATION":"53.0546","BSTAR":"0.00007246200000","GP_ID":"231962308","APOAPSIS":"548.091","OBJECT_ID":"2020-070BD","EPOCH":"2023-05-16T08:14:44.242368","FILE":"3909472","MEAN_MOTION":"15.06393977","SITE":"AFETR","REV_AT_EPOCH":"14450","MEAN_MOTION_DOT":"0.00000798","RA_OF_ASC_NODE":"113.0375","OBJECT_TYPE":"PAYLOAD","EPHEMERIS_TYPE":"0","ECCENTRICITY":"0.00012410","LAUNCH_DATE":"2020-10-06","CENTER_NAME":"EARTH"},{"COUNTRY_CODE":"US","OBJECT_NAME":"STARLINK-1732","MEAN_MOTION_DDOT":"0.0000000000000","ARG_OF_PERICENTER":"74.5706","TLE_LINE2":"2 46584  53.0548  93.2447 0001303  74.5706 285.5426 15.06389604144787","MEAN_ANOMALY":"285.5426","ELEMENT_SET_NO":"999","PERIOD":"95.593","DECAY_DATE":null,"RCS_SIZE":"LARGE","CLASSIFICATION_TYPE":"U","TIME_SYSTEM":"UTC","REF_FRAME":"TEME","MEAN_ELEMENT_THEORY":"SGP4","TLE_LINE1":"1 46584U 20070BE  23136.29748694  .00000245  00000-0  35377-4 0  9990","PERIAPSIS":"546.343","INCLINATION":"53.0548","BSTAR":"0.00003537700000","NORAD_CAT_ID":"46584","SEMIMAJOR_AXIS":"6925.380","GP_ID":"231962553","SITE":"AFETR","REV_AT_EPOCH":"14478","MEAN_MOTION_DOT":"0.00000245","RA_OF_ASC_NODE":"93.2447","OBJECT_TYPE":"PAYLOAD","OBJECT_ID":"2020-070BE","APOAPSIS":"548.148","FILE":"3909472","EPOCH":"2023-05-16T07:08:22.871616","MEAN_MOTION":"15.06389604","ECCENTRICITY":"0.00013030","CENTER_NAME":"EARTH","LAUNCH_DATE":"2020-10-06","EPHEMERIS_TYPE":"0"},{"OBJECT_NAME":"STARLINK-1736","MEAN_MOTION_DDOT":"0.0000000000000","COUNTRY_CODE":"US","TLE_LINE2":"2 46585  53.0542  90.7763 0001096 106.8903 253.2206 15.06405632144869","MEAN_ANOMALY":"253.2206","ARG_OF_PERICENTER":"106.8903","DECAY_DATE":null,"RCS_SIZE":"LARGE","CLASSIFICATION_TYPE":"U","PERIOD":"95.592","ELEMENT_SET_NO":"999","TIME_SYSTEM":"UTC","REF_FRAME":"TEME","MEAN_ELEMENT_THEORY":"SGP4","NORAD_CAT_ID":"46585","SEMIMAJOR_AXIS":"6925.331","PERIAPSIS":"546.437","TLE_LINE1":"1 46585U 20070BF  23136.84574367  .00000634  00000-0  61438-4 0  9995","INCLINATION":"53.0542","BSTAR":"0.00006143800000","GP_ID":"231995787","OBJECT_ID":"2020-070BF","APOAPSIS":"547.955","FILE":"3909742","EPOCH":"2023-05-16T20:17:52.253088","MEAN_MOTION":"15.06405632","SITE":"AFETR","REV_AT_EPOCH":"14486","MEAN_MOTION_DOT":"0.00000634","OBJECT_TYPE":"PAYLOAD","RA_OF_ASC_NODE":"90.7763","EPHEMERIS_TYPE":"0","ECCENTRICITY":"0.00010960","LAUNCH_DATE":"2020-10-06","CENTER_NAME":"EARTH"},{"ARG_OF_PERICENTER":"88.0167","MEAN_ANOMALY":"272.0905","TLE_LINE2":"2 46586  53.0549  90.5382 0000726  88.0167 272.0905 15.06399752144875","COUNTRY_CODE":"US","MEAN_MOTION_DDOT":"0.0000000000000","OBJECT_NAME":"STARLINK-1737","REF_FRAME":"TEME","MEAN_ELEMENT_THEORY":"SGP4","TIME_SYSTEM":"UTC","PERIOD":"95.592","ELEMENT_SET_NO":"999","CLASSIFICATION_TYPE":"U","DECAY_DATE":null,"RCS_SIZE":"LARGE","GP_ID":"231994536","INCLINATION":"53.0549","BSTAR":"0.00003620200000","TLE_LINE1":"1 46586U 20070BG  23136.90198051  .00000258  00000-0  36202-4 0  9998","PERIAPSIS":"546.712","SEMIMAJOR_AXIS":"6925.349","NORAD_CAT_ID":"46586","CENTER_NAME":"EARTH","LAUNCH_DATE":"2020-10-06","ECCENTRICITY":"0.00007260","EPHEMERIS_TYPE":"0","MEAN_MOTION_DOT":"0.00000258","RA_OF_ASC_NODE":"90.5382","OBJECT_TYPE":"PAYLOAD","SITE":"AFETR","REV_AT_EPOCH":"14487","MEAN_MOTION":"15.06399752","APOAPSIS":"547.717","OBJECT_ID":"2020-070BG","EPOCH":"2023-05-16T21:38:51.116064","FILE":"3909742"},{"COUNTRY_CODE":"US","MEAN_MOTION_DDOT":"0.0000000000000","OBJECT_NAME":"STARLINK-1746","ARG_OF_PERICENTER":"110.7267","MEAN_ANOMALY":"249.3883","TLE_LINE2":"2 46588  53.0542  93.2908 0001509 110.7267 249.3883 15.06388482144788","ELEMENT_SET_NO":"999","PERIOD":"95.593","CLASSIFICATION_TYPE":"U","RCS_SIZE":"LARGE","DECAY_DATE":null,"MEAN_ELEMENT_THEORY":"SGP4","REF_FRAME":"TEME","TIME_SYSTEM":"UTC","BSTAR":"0.00010374000000","INCLINATION":"53.0542","TLE_LINE1":"1 46588U 20070BJ  23136.28644124  .00001264  00000-0  10374-3 0  9997","PERIAPSIS":"546.204","SEMIMAJOR_AXIS":"6925.384","NORAD_CAT_ID":"46588","GP_ID":"231962808","OBJECT_TYPE":"PAYLOAD","RA_OF_ASC_NODE":"93.2908","MEAN_MOTION_DOT":"0.00001264","REV_AT_EPOCH":"14478","SITE":"AFETR","MEAN_MOTION":"15.06388482","FILE":"3909472","EPOCH":"2023-05-16T06:52:28.523136","OBJECT_ID":"2020-070BJ","APOAPSIS":"548.294","LAUNCH_DATE":"2020-10-06","CENTER_NAME":"EARTH","ECCENTRICITY":"0.00015090","EPHEMERIS_TYPE":"0"},{"MEAN_ANOMALY":"273.6393","TLE_LINE2":"2 46589  53.0545  93.0341 0001566  86.4775 273.6393 15.06394946144785","ARG_OF_PERICENTER":"86.4775","MEAN_MOTION_DDOT":"0.0000000000000","OBJECT_NAME":"STARLINK-1749","COUNTRY_CODE":"US","REF_FRAME":"TEME","MEAN_ELEMENT_THEORY":"SGP4","TIME_SYSTEM":"UTC","CLASSIFICATION_TYPE":"U","DECAY_DATE":null,"RCS_SIZE":"LARGE","ELEMENT_SET_NO":"999","PERIOD":"95.592","GP_ID":"231963052","SEMIMAJOR_AXIS":"6925.364","NORAD_CAT_ID":"46589","INCLINATION":"53.0545","BSTAR":"0.00009992400000","PERIAPSIS":"546.145","TLE_LINE1":"1 46589U 20070BK  23136.34541861  .00001207  00000-0  99924-4 0  9995","EPHEMERIS_TYPE":"0","LAUNCH_DATE":"2020-10-06","CENTER_NAME":"EARTH","ECCENTRICITY":"0.00015660","MEAN_MOTION":"15.06394946","APOAPSIS":"548.314","OBJECT_ID":"2020-070BK","FILE":"3909472","EPOCH":"2023-05-16T08:17:24.167904","MEAN_MOTION_DOT":"0.00001207","OBJECT_TYPE":"PAYLOAD","RA_OF_ASC_NODE":"93.0341","SITE":"AFETR","REV_AT_EPOCH":"14478"},{"INCLINATION":"53.0524","BSTAR":"0.00091050000000","PERIAPSIS":"546.412","TLE_LINE1":"1 46591U 20070BM  23136.86513054  .00013306  00000-0  91050-3 0  9992","SEMIMAJOR_AXIS":"6925.354","NORAD_CAT_ID":"46591","GP_ID":"231995289","MEAN_MOTION_DOT":"0.00013306","OBJECT_TYPE":"PAYLOAD","RA_OF_ASC_NODE":"90.6994","SITE":"AFETR","REV_AT_EPOCH":"14392","MEAN_MOTION":"15.06398325","OBJECT_ID":"2020-070BM","APOAPSIS":"548.025","FILE":"3909742","EPOCH":"2023-05-16T20:45:47.278656","CENTER_NAME":"EARTH","LAUNCH_DATE":"2020-10-06","ECCENTRICITY":"0.00011650","EPHEMERIS_TYPE":"0","COUNTRY_CODE":"US","MEAN_MOTION_DDOT":"0.0000000000000","OBJECT_NAME":"STARLINK-1755","ARG_OF_PERICENTER":"78.4560","MEAN_ANOMALY":"281.6560","TLE_LINE2":"2 46591  53.0524  90.6994 0001165  78.4560 281.6560 15.06398325143925","ELEMENT_SET_NO":"999","PERIOD":"95.592","CLASSIFICATION_TYPE":"U","DECAY_DATE":null,"RCS_SIZE":"LARGE","REF_FRAME":"TEME","MEAN_ELEMENT_THEORY":"SGP4","TIME_SYSTEM":"UTC"},{"NORAD_CAT_ID":"46671","SEMIMAJOR_AXIS":"6925.352","PERIAPSIS":"546.311","TLE_LINE1":"1 46671U 20073B   23136.82738305  .00001812  00000-0  14051-3 0  9993","INCLINATION":"53.0535","BSTAR":"0.00014051000000","GP_ID":"231994294","APOAPSIS":"548.124","OBJECT_ID":"2020-073B","EPOCH":"2023-05-16T19:51:25.895520","FILE":"3909742","MEAN_MOTION":"15.06398789","SITE":"AFETR","REV_AT_EPOCH":"14213","MEAN_MOTION_DOT":"0.00001812","RA_OF_ASC_NODE":"181.1136","OBJECT_TYPE":"PAYLOAD","EPHEMERIS_TYPE":"0","ECCENTRICITY":"0.00013090","LAUNCH_DATE":"2020-10-18","CENTER_NAME":"EARTH","OBJECT_NAME":"STARLINK-1715","MEAN_MOTION_DDOT":"0.0000000000000","COUNTRY_CODE":"US","TLE_LINE2":"2 46671  53.0535 181.1136 0001309  81.9097 278.2040 15.06398789142135","MEAN_ANOMALY":"278.2040","ARG_OF_PERICENTER":"81.9097","DECAY_DATE":null,"RCS_SIZE":"LARGE","CLASSIFICATION_TYPE":"U","ELEMENT_SET_NO":"999","PERIOD":"95.592","TIME_SYSTEM":"UTC","REF_FRAME":"TEME","MEAN_ELEMENT_THEORY":"SGP4"},{"OBJECT_NAME":"STARLINK-1716","MEAN_MOTION_DDOT":"0.0000000000000","COUNTRY_CODE":"US","TLE_LINE2":"2 46672  53.0526 175.7916 0001142  87.4434 272.6686 15.06399985142214","MEAN_ANOMALY":"272.6686","ARG_OF_PERICENTER":"87.4434","DECAY_DATE":null,"RCS_SIZE":"LARGE","CLASSIFICATION_TYPE":"U","PERIOD":"95.592","ELEMENT_SET_NO":"999","TIME_SYSTEM":"UTC","REF_FRAME":"TEME","MEAN_ELEMENT_THEORY":"SGP4","NORAD_CAT_ID":"46672","SEMIMAJOR_AXIS":"6925.349","TLE_LINE1":"1 46672U 20073C   23136.84440429  .00004410  00000-0  31478-3 0  9992","PERIAPSIS":"546.423","INCLINATION":"53.0526","BSTAR":"0.00031478000000","GP_ID":"231995046","OBJECT_ID":"2020-073C","APOAPSIS":"548.004","EPOCH":"2023-05-16T20:15:56.530656","FILE":"3909742","MEAN_MOTION":"15.06399985","SITE":"AFETR","REV_AT_EPOCH":"14221","MEAN_MOTION_DOT":"0.00004410","RA_OF_ASC_NODE":"175.7916","OBJECT_TYPE":"PAYLOAD","EPHEMERIS_TYPE":"0","ECCENTRICITY":"0.00011420","CENTER_NAME":"EARTH","LAUNCH_DATE":"2020-10-18"},{"MEAN_ANOMALY":"305.2474","TLE_LINE2":"2 46673  53.0531 192.1958 0001306  54.8638 305.2474 15.06399001141953","ARG_OF_PERICENTER":"54.8638","MEAN_MOTION_DDOT":"0.0000000000000","OBJECT_NAME":"STARLINK-1717","COUNTRY_CODE":"US","REF_FRAME":"TEME","MEAN_ELEMENT_THEORY":"SGP4","TIME_SYSTEM":"UTC","CLASSIFICATION_TYPE":"U","DECAY_DATE":null,"RCS_SIZE":"LARGE","ELEMENT_SET_NO":"999","PERIOD":"95.592","GP_ID":"231961820","SEMIMAJOR_AXIS":"6925.352","NORAD_CAT_ID":"46673","INCLINATION":"53.0531","BSTAR":"0.00005727900000","PERIAPSIS":"546.312","TLE_LINE1":"1 46673U 20073D   23136.56105946  .00000572  00000-0  57279-4 0  9997","EPHEMERIS_TYPE":"0","LAUNCH_DATE":"2020-10-18","CENTER_NAME":"EARTH","ECCENTRICITY":"0.00013060","MEAN_MOTION":"15.06399001","APOAPSIS":"548.121","OBJECT_ID":"2020-073D","EPOCH":"2023-05-16T13:27:55.537344","FILE":"3909472","MEAN_MOTION_DOT":"0.00000572","RA_OF_ASC_NODE":"192.1958","OBJECT_TYPE":"PAYLOAD","SITE":"AFETR","REV_AT_EPOCH":"14195"}];
